[{"OBJECT_NAME":"JILIN-1 GAOFEN 03D47","OBJECT_ID":"2022-167L","EPOCH":"2026-03-09T22:56:46.924224","MEAN_MOTION":15.31686941,"ECCENTRICITY":0.00089304,"INCLINATION":97.6835,"RA_OF_ASC_NODE":234.6581,"ARG_OF_PERICENTER":110.4031,"MEAN_ANOMALY":249.8169,"EPHEMERIS_TYPE":0,"CLASSIFICATION_TYPE":"U","NORAD_CAT_ID":54692,"ELEMENT_SET_NO":999,"REV_AT_EPOCH":18014,"BSTAR":0.00047294748,"MEAN_MOTION_DOT":0.00014417,"MEAN_MOTION_DDOT":0},{"OBJECT_NAME":"STARLINK-31435","OBJECT_ID":"2024-036G","EPOCH":"2026-03-09T09:47:21.454944","MEAN_MOTION":15.30178292,"ECCENTRICITY":0.00011552,"INCLINATION":53.16,"RA_OF_ASC_NODE":79.1848,"ARG_OF_PERICENTER":95.8113,"MEAN_ANOMALY":264.3019,"EPHEMERIS_TYPE":0,"CLASSIFICATION_TYPE":"U","NORAD_CAT_ID":59004,"ELEMENT_SET_NO":999,"REV_AT_EPOCH":11529,"BSTAR":5.9965767e-5,"MEAN_MOTION_DOT":1.416e-5,"MEAN_MOTION_DDOT":0}]
